NORAD_CAT_ID,OBJECT_NAME,OBJECT_TYPE,EPOCH,MEAN_MOTION,ECCENTRICITY,INCLINATION,RA_OF_ASC_NODE,ARG_OF_PERICENTER,MEAN_ANOMALY,BSTAR,MEAN_MOTION_DOT,MEAN_MOTION_DDOT,TLE_LINE0,TLE_LINE1,TLE_LINE2,SEMIMAJOR_AXIS,PERIOD,APOGEE,PERIGEE,DECAYED
54062.0,STARLINK-5170,PAYLOAD,2023-05-04 13:59:46,15.08847556,0.00012,53.2172,333.3089,85.8359,274.277,9.7641e-05,1.267e-05,0.0,0 STARLINK-5170,1 54062U 22136M   23124.58317615  .00001267  00000-0  97641-4 0  9996,2 54062  53.2172 333.3089 0001200  85.8359 274.2770 15.08847556 30303,6917.857,95.437,540.552,538.892,0.0
54062.0,STARLINK-5170,PAYLOAD,2023-05-04 20:21:18,15.08851892,0.0001318,53.217,332.1207,75.8791,284.2347,0.00014867,2.08e-05,0.0,0 STARLINK-5170,1 54062U 22136M   23124.84813209  .00002080  00000-0  14867-3 0  9997,2 54062  53.2170 332.1207 0001318  75.8791 284.2347 15.08851892 29867,6917.844,95.437,540.621,538.797,0.0
54062.0,STARLINK-5170,PAYLOAD,2023-05-05 20:12:06,15.08842232,0.0001159,53.2161,327.6595,82.0837,278.0287,0.00011793,1.59e-05,0.0,0 STARLINK-5170,1 54062U 22136M   23125.84173905  .00001590  00000-0  11793-3 0  9990,2 54062  53.2161 327.6595 0001159  82.0837 278.0287 15.08842232 30011,6917.874,95.437,540.54,538.937,0.0
54062.0,STARLINK-5170,PAYLOAD,2023-05-05 23:22:52,15.08842906,0.0001167,53.2161,327.0647,81.8108,278.3016,0.00011644,1.566e-05,0.0,0 STARLINK-5170,1 54062U 22136M   23125.97421851  .00001566  00000-0  11644-3 0  9998,2 54062  53.2161 327.0647 0001167  81.8108 278.3016 15.08842906 30516,6917.872,95.437,540.544,538.929,0.0
54062.0,STARLINK-5170,PAYLOAD,2023-05-07 05:35:12,15.08842673,0.000101,53.2157,321.4164,79.4621,280.6485,-1.7772e-06,-3.16e-06,0.0,0 STARLINK-5170,1 54062U 22136M   23127.23277841 -.00000316  00000-0 -17772-5 0  9991,2 54062  53.2157 321.4164 0001010  79.4621 280.6485 15.08842673 30701,6917.872,95.437,540.436,539.039,0.0
54062.0,STARLINK-5170,PAYLOAD,2023-05-07 19:53:40,15.08840156,9.73e-05,53.2152,318.7409,93.1257,266.9846,9.9403e-05,1.295e-05,0.0,0 STARLINK-5170,1 54062U 22136M   23127.82894319  .00001295  00000-0  99403-4 0  9996,2 54062  53.2152 318.7409 0000973  93.1257 266.9846 15.08840156 30311,6917.88,95.438,540.418,539.072,0.0
54062.0,STARLINK-5170,PAYLOAD,2023-05-08 19:44:27,15.08843014,0.0001058,53.2151,314.2802,109.747,250.3636,8.7772e-05,1.109e-05,0.0,0 STARLINK-5170,1 54062U 22136M   23128.82254159  .00001109  00000-0  87772-4 0  9999,2 54062  53.2151 314.2802 0001058 109.7470 250.3636 15.08843014 30943,6917.871,95.437,540.468,539.004,0.0
54062.0,STARLINK-5170,PAYLOAD,2023-05-09 05:16:46,15.0884217,9.94e-05,53.2155,312.496,100.3686,259.7418,0.00010315,1.354e-05,0.0,0 STARLINK-5170,1 54062U 22136M   23129.21998219  .00001354  00000-0  10315-3 0  9995,2 54062  53.2155 312.4960 0000994 100.3686 259.7418 15.08842170 30523,6917.874,95.437,540.426,539.051,0.0
54062.0,STARLINK-5170,PAYLOAD,2023-05-10 05:07:33,15.08840652,0.0001016,53.216,308.0352,86.6438,273.4671,4.6539e-05,4.53e-06,0.0,0 STARLINK-5170,1 54062U 22136M   23130.21358426  .00000453  00000-0  46539-4 0  9994,2 54062  53.2160 308.0352 0001016  86.6438 273.4671 15.08840652 30675,6917.878,95.438,540.446,539.041,0.0
54062.0,STARLINK-5170,PAYLOAD,2023-05-10 19:26:01,15.08845445,0.0001001,53.2166,305.3573,91.4848,268.6259,7.2451e-05,8.66e-06,0.0,0 STARLINK-5170,1 54062U 22136M   23130.80974348  .00000866  00000-0  72451-4 0  9996,2 54062  53.2166 305.3573 0001001  91.4848 268.6259 15.08845445 30762,6917.864,95.437,540.421,539.036,0.0
54062.0,STARLINK-5170,PAYLOAD,2023-05-11 17:41:25,15.08840868,0.0001064,53.2162,301.1945,87.3272,272.7842,7.8895e-05,9.68e-06,0.0,0 STARLINK-5170,1 54062U 22136M   23131.73710630  .00000968  00000-0  78895-4 0  9992,2 54062  53.2162 301.1945 0001064  87.3272 272.7842 15.08840868 31386,6917.878,95.437,540.479,539.007,0.0
54062.0,STARLINK-5170,PAYLOAD,2023-05-12 04:49:07,15.08847222,9.25e-05,53.2158,299.114,100.1538,259.9558,3.3628e-05,2.48e-06,0.0,0 STARLINK-5170,1 54062U 22136M   23132.20078157  .00000248  00000-0  33628-4 0  9992,2 54062  53.2158 299.1140 0000925 100.1538 259.9558 15.08847222 30974,6917.858,95.437,540.363,539.083,0.0
54062.0,STARLINK-5170,PAYLOAD,2023-05-12 17:32:13,15.08840049,0.0001039,53.217,296.7334,88.1548,271.9563,2.5322e-05,1.15e-06,0.0,0 STARLINK-5170,1 54062U 22136M   23132.73070798  .00000115  00000-0  25322-4 0  9998,2 54062  53.2170 296.7334 0001039  88.1548 271.9563 15.08840049 31059,6917.88,95.438,540.464,539.026,0.0
54062.0,STARLINK-5170,PAYLOAD,2023-05-13 14:12:13,15.08835578,0.000113,53.2179,292.8691,91.9505,268.1616,0.00010912,1.449e-05,0.0,0 STARLINK-5170,1 54062U 22136M   23133.59182778  .00001449  00000-0  10912-3 0  9994,2 54062  53.2179 292.8691 0001130  91.9505 268.1616 15.08835578 31663,6917.894,95.438,540.541,538.977,0.0
54062.0,STARLINK-5170,PAYLOAD,2023-05-13 18:58:22,15.08847477,9.96e-05,53.2167,291.9785,75.7024,284.4078,5.3e-05,5.56e-06,0.0,0 STARLINK-5170,1 54062U 22136M   23133.79054273  .00000556  00000-0  53000-4 0  9998,2 54062  53.2167 291.9785 0000996  75.7024 284.4078 15.08847477 31214,6917.858,95.437,540.412,539.034,0.0
54062.0,STARLINK-5170,PAYLOAD,2023-05-14 14:03:01,15.08831505,0.0001092,53.2172,288.4083,82.328,277.7836,2.2528e-05,7.1e-07,0.0,0 STARLINK-5170,1 54062U 22136M   23134.58543468  .00000071  00000-0  22528-4 0  9998,2 54062  53.2172 288.4083 0001092  82.3280 277.7836 15.08831505 31816,6917.906,95.438,540.527,539.016,0.0
54062.0,STARLINK-5170,PAYLOAD,2023-05-14 18:49:10,15.08840832,0.0001027,53.2169,287.5161,84.0203,276.0906,7.7002e-05,9.38e-06,0.0,0 STARLINK-5170,1 54062U 22136M   23134.78414749  .00000938  00000-0  77002-4 0  9998,2 54062  53.2169 287.5161 0001027  84.0203 276.0906 15.08840832 31364,6917.878,95.438,540.453,539.032,0.0
54062.0,STARLINK-5170,PAYLOAD,2023-05-15 02:46:06,15.08834854,9.87e-05,53.2167,286.0289,80.8248,279.2856,2.213e-05,6.4e-07,0.0,0 STARLINK-5170,1 54062U 22136M   23135.11535364  .00000064  00000-0  22130-4 0  9995,2 54062  53.2167 286.0289 0000987  80.8248 279.2856 15.08834854 31898,6917.896,95.438,540.444,539.078,0.0
54062.0,STARLINK-5170,PAYLOAD,2023-05-15 10:43:02,15.08836186,0.0001149,53.2166,284.5424,81.4583,278.654,-3.3107e-05,-8.15e-06,0.0,0 STARLINK-5170,1 54062U 22136M   23135.44655588 -.00000815  00000-0 -33107-4 0  9994,2 54062  53.2166 284.5424 0001149  81.4583 278.6540 15.08836186 31467,6917.892,95.438,540.552,538.962,0.0
54062.0,STARLINK-5170,PAYLOAD,2023-05-15 17:04:34,15.08839723,9.05e-05,53.2159,283.3547,91.1238,268.9857,-1.283e-06,-3.08e-06,0.0,0 STARLINK-5170,1 54062U 22136M   23135.71151210 -.00000308  00000-0 -12830-5 0  9995,2 54062  53.2159 283.3547 0000905  91.1238 268.9857 15.08839723 31504,6917.881,95.438,540.372,539.12,0.0
54062.0,STARLINK-5170,PAYLOAD,2023-05-16 12:09:12,15.08836613,8.66e-05,53.2161,279.786,98.1083,262.0007,8.6652e-06,-1.5e-06,0.0,0 STARLINK-5170,1 54062U 22136M   23136.50639699 -.00000150  00000-0  86652-5 0  9992,2 54062  53.2161 279.7860 0000866  98.1083 262.0007 15.08836613 32109,6917.891,95.438,540.355,539.157,0.0
54062.0,STARLINK-5170,PAYLOAD,2023-05-17 16:46:08,15.08844831,8.81e-05,53.2165,274.4323,89.7071,270.4022,7.8813e-05,9.67e-06,0.0,0 STARLINK-5170,1 54062U 22136M   23137.69871101  .00000967  00000-0  78813-4 0  9993,2 54062  53.2165 274.4323 0000881  89.7071 270.4022 15.08844831 32289,6917.866,95.437,540.34,539.121,0.0
54062.0,STARLINK-5170,PAYLOAD,2023-05-18 02:18:27,15.08837384,9.06e-05,53.2166,272.6486,77.8113,282.2981,6.2791e-05,7.12e-06,0.0,0 STARLINK-5170,1 54062U 22136M   23138.09615645  .00000712  00000-0  62791-4 0  9993,2 54062  53.2166 272.6486 0000906  77.8113 282.2981 15.08837384 32340,6917.888,95.438,540.38,539.127,0.0
54062.0,STARLINK-5170,PAYLOAD,2023-05-18 13:26:10,15.08831145,0.0001078,53.2164,270.5669,76.1329,283.9783,3.3891e-05,2.52e-06,0.0,0 STARLINK-5170,1 54062U 22136M   23138.55984285  .00000252  00000-0  33891-4 0  9991,2 54062  53.2164 270.5669 0001078  76.1329 283.9783 15.08831145 31931,6917.907,95.438,540.518,539.027,0.0
54062.0,STARLINK-5170,PAYLOAD,2023-05-18 18:12:19,15.0883855,0.0001034,53.2169,269.6729,82.3339,277.777,1.7966e-05,-2e-08,0.0,0 STARLINK-5170,1 54062U 22136M   23138.75855849 -.00000002  00000-0  17966-4 0  9995,2 54062  53.2169 269.6729 0001034  82.3339 277.7770 15.08838550 31961,6917.885,95.438,540.465,539.035,0.0
54062.0,STARLINK-5170,PAYLOAD,2023-05-19 02:09:15,15.08839662,0.0001144,53.2166,268.1877,78.838,281.274,3.1559e-05,2.14e-06,0.0,0 STARLINK-5170,1 54062U 22136M   23139.08975777  .00000214  00000-0  31559-4 0  9993,2 54062  53.2166 268.1877 0001144  78.8380 281.2740 15.08839662 32495,6917.881,95.438,540.538,538.955,0.0
54062.0,STARLINK-5170,PAYLOAD,2023-05-19 18:03:05,15.08849015,0.0001037,53.2163,265.2118,91.7433,268.3678,5.3058e-05,5.57e-06,0.0,0 STARLINK-5170,1 54062U 22136M   23139.75214956  .00000557  00000-0  53058-4 0  9990,2 54062  53.2163 265.2118 0001037  91.7433 268.3678 15.08849015 32592,6917.853,95.437,540.435,539.0,0.0
54062.0,STARLINK-5170,PAYLOAD,2023-05-20 14:43:05,15.08855772,9.22e-05,53.2166,261.3455,91.5727,268.5371,0.0001756,2.509e-05,0.0,0 STARLINK-5170,1 54062U 22136M   23140.61326038  .00002509  00000-0  17560-3 0  9998,2 54062  53.2166 261.3455 0000922  91.5727 268.5371 15.08855772 32243,6917.832,95.437,540.335,539.059,0.0
54062.0,STARLINK-5170,PAYLOAD,2023-05-21 08:12:21,15.08838632,9.97e-05,53.2161,258.0734,113.0932,247.0165,-2.6275e-05,-7.06e-06,0.0,0 STARLINK-5170,1 54062U 22136M   23141.34191641 -.00000706  00000-0 -26275-4 0  9992,2 54062  53.2161 258.0734 0000997 113.0932 247.0165 15.08838632 32835,6917.885,95.438,540.439,539.06,0.0
54062.0,STARLINK-5170,PAYLOAD,2023-05-21 11:23:07,15.08837233,0.0001126,53.2163,257.4789,132.7866,227.3221,-3.3915e-05,-8.27e-06,0.0,0 STARLINK-5170,1 54062U 22136M   23141.47439686 -.00000827  00000-0 -33915-4 0  9993,2 54062  53.2163 257.4789 0001126 132.7866 227.3221 15.08837233 32378,6917.889,95.438,540.533,538.975,0.0
